sat04932
1 04932U 70025FY  20046.91915323  .00000492  00000-0  46077-3 0  9999
2 04932  99.7898 274.5740 0033713 351.1614  22.6746 13.86933426481529
